{
  "norad_id": 52656,
  "name": "STARLINK-4004",
  "history": [
    {
      "epoch": "2026-05-05T18:59:13.125696Z",
      "apogee_km": 540.4635782791593,
      "perigee_km": 539.0122081265654,
      "latitude_deg": 2.7553408732770755e-05,
      "longitude_deg": 109.32318834919243,
      "height_km": 540.514419220665,
      "semi_major_axis_km": 6917.874893202862,
      "eccentricity": 0.0001049,
      "inclination_deg": 53.2168,
      "raan_deg": 257.7889,
      "arg_perigee_deg": 80.5171,
      "mean_anomaly_deg": 279.594,
      "mean_motion_rev_day": 15.08841798
    },
    {
      "epoch": "2026-05-06T09:17:42.084960Z",
      "apogee_km": 540.4977746300801,
      "perigee_km": 539.0331163243245,
      "latitude_deg": -3.747907465553261e-05,
      "longitude_deg": -108.56203638528662,
      "height_km": 540.5316454111681,
      "semi_major_axis_km": 6917.9024454772025,
      "eccentricity": 0.00010586,
      "inclination_deg": 53.2162,
      "raan_deg": 255.112,
      "arg_perigee_deg": 79.7894,
      "mean_anomaly_deg": 280.3217,
      "mean_motion_rev_day": 15.08832784
    },
    {
      "epoch": "2026-05-07T17:05:24.512928Z",
      "apogee_km": 540.5282663564913,
      "perigee_km": 538.9662080957269,
      "latitude_deg": -1.7721397137618085e-05,
      "longitude_deg": 127.25761117270348,
      "height_km": 540.4455731732426,
      "semi_major_axis_km": 6917.884237226109,
      "eccentricity": 0.0001129,
      "inclination_deg": 53.2151,
      "raan_deg": 249.1642,
      "arg_perigee_deg": 75.3527,
      "mean_anomaly_deg": 284.759,
      "mean_motion_rev_day": 15.08838741
    },
    {
      "epoch": "2026-05-08T13:45:25.363008Z",
      "apogee_km": 540.4391023492899,
      "perigee_km": 539.059675803308,
      "latitude_deg": 5.124073164316675e-05,
      "longitude_deg": 172.54165830063042,
      "height_km": 540.6476273571195,
      "semi_major_axis_km": 6917.886389076299,
      "eccentricity": 9.97e-05,
      "inclination_deg": 53.2163,
      "raan_deg": 245.3005,
      "arg_perigee_deg": 90.1797,
      "mean_anomaly_deg": 269.931,
      "mean_motion_rev_day": 15.08838037
    },
    {
      "epoch": "2026-05-09T15:11:35.507040Z",
      "apogee_km": 540.4697007158402,
      "perigee_km": 539.0100286973866,
      "latitude_deg": 3.081646181202303e-05,
      "longitude_deg": 145.19744825705928,
      "height_km": 540.5772380790336,
      "semi_major_axis_km": 6917.876864706613,
      "eccentricity": 0.0001055,
      "inclination_deg": 53.2173,
      "raan_deg": 240.5432,
      "arg_perigee_deg": 85.3836,
      "mean_anomaly_deg": 274.7277,
      "mean_motion_rev_day": 15.08841153
    },
    {
      "epoch": "2026-05-10T13:26:59.365248Z",
      "apogee_km": 540.3952324590209,
      "perigee_km": 539.0891368689554,
      "latitude_deg": -1.7678709876893432e-05,
      "longitude_deg": 166.27035450698702,
      "height_km": 540.6146349770886,
      "semi_major_axis_km": 6917.879184663988,
      "eccentricity": 9.44e-05,
      "inclination_deg": 53.2167,
      "raan_deg": 236.3796,
      "arg_perigee_deg": 87.9158,
      "mean_anomaly_deg": 272.1942,
      "mean_motion_rev_day": 15.08840394
    },
    {
      "epoch": "2026-05-11T13:17:46.360320Z",
      "apogee_km": 540.3941872613468,
      "perigee_km": 539.0986060588202,
      "latitude_deg": -1.7517546898146943e-05,
      "longitude_deg": 163.13510498226225,
      "height_km": 540.6029198884879,
      "semi_major_axis_km": 6917.883396660083,
      "eccentricity": 9.364e-05,
      "inclination_deg": 53.217,
      "raan_deg": 231.9195,
      "arg_perigee_deg": 86.4846,
      "mean_anomaly_deg": 273.6253,
      "mean_motion_rev_day": 15.08839016
    },
    {
      "epoch": "2026-05-12T13:08:33.631008Z",
      "apogee_km": 540.4234341791143,
      "perigee_km": 539.0827470795502,
      "latitude_deg": -1.1882610697197411e-05,
      "longitude_deg": 159.9981087211056,
      "height_km": 540.6386075684247,
      "semi_major_axis_km": 6917.890090629332,
      "eccentricity": 9.69e-05,
      "inclination_deg": 53.217,
      "raan_deg": 227.4588,
      "arg_perigee_deg": 89.0872,
      "mean_anomaly_deg": 271.0231,
      "mean_motion_rev_day": 15.08836826
    },
    {
      "epoch": "2026-05-13T16:10:07.038912Z",
      "apogee_km": 540.3947352385485,
      "perigee_km": 539.1052411039536,
      "latitude_deg": -3.470926464728043e-05,
      "longitude_deg": 108.44357663335582,
      "height_km": 540.5854226745179,
      "semi_major_axis_km": 6917.886988171251,
      "eccentricity": 9.32e-05,
      "inclination_deg": 53.2168,
      "raan_deg": 222.4034,
      "arg_perigee_deg": 84.589,
      "mean_anomaly_deg": 275.5208,
      "mean_motion_rev_day": 15.08837841
    },
    {
      "epoch": "2026-05-13T22:31:39.702144Z",
      "apogee_km": 540.4083933189886,
      "perigee_km": 539.1009117966541,
      "latitude_deg": 2.815870565200337e-05,
      "longitude_deg": 11.606768898695886,
      "height_km": 540.5744526125945,
      "semi_major_axis_km": 6917.891652557821,
      "eccentricity": 9.45e-05,
      "inclination_deg": 53.2169,
      "raan_deg": 221.2138,
      "arg_perigee_deg": 83.2869,
      "mean_anomaly_deg": 276.8231,
      "mean_motion_rev_day": 15.08836315
    }
  ]
}